start=new Date('2023-07-03T00:00:00.000Z').valueOf();
sats=[{"MEAN_ELEMENT_THEORY":"SGP4","EPHEMERIS_TYPE":"0","TLE_LINE2":"2 56422  42.9987 116.4744 0001382 268.9278  27.2268 15.66027868  9558","RCS_SIZE":"LARGE","MEAN_ANOMALY":"27.2268","MEAN_MOTION_DDOT":"0.0000000000000","REV_AT_EPOCH":"955","LAUNCH_DATE":"2023-05-04","SITE":"AFETR","OBJECT_NAME":"STARLINK-6236","RA_OF_ASC_NODE":"116.4744","OBJECT_ID":"2023-061BA","GP_ID":"234664639","ELEMENT_SET_NO":"999","TIME_SYSTEM":"UTC","DECAY_DATE":null,"PERIAPSIS":"369.354","COUNTRY_CODE":"US","TLE_LINE1":"1 56422U 23061BA  23183.16667824 -.00872086  00000-0 -90581-2 0  9996","APOAPSIS":"371.219","INCLINATION":"42.9987","BSTAR":"-0.00905810000000","MEAN_MOTION_DOT":"-0.00872086","ARG_OF_PERICENTER":"268.9278","CENTER_NAME":"EARTH","ECCENTRICITY":"0.00013820","FILE":"3947344","PERIOD":"91.952","CLASSIFICATION_TYPE":"U","EPOCH":"2023-07-02T04:00:00.999936","NORAD_CAT_ID":"56422","OBJECT_TYPE":"PAYLOAD","REF_FRAME":"TEME","MEAN_MOTION":"15.66027868","SEMIMAJOR_AXIS":"6748.421"},{"OBJECT_TYPE":"PAYLOAD","NORAD_CAT_ID":"56423","REF_FRAME":"TEME","SEMIMAJOR_AXIS":"6748.427","MEAN_MOTION":"15.66025956","PERIOD":"91.952","CLASSIFICATION_TYPE":"U","EPOCH":"2023-07-02T04:00:00.999936","CENTER_NAME":"EARTH","FILE":"3947765","ECCENTRICITY":"0.00014200","BSTAR":"-0.00912530000000","MEAN_MOTION_DOT":"-0.00877957","ARG_OF_PERICENTER":"272.8189","PERIAPSIS":"369.333","DECAY_DATE":null,"TLE_LINE1":"1 56423U 23061BB  23183.16667824 -.00877957  00000-0 -91253-2 0  9996","COUNTRY_CODE":"US","APOAPSIS":"371.250","INCLINATION":"42.9989","ELEMENT_SET_NO":"999","GP_ID":"234674821","TIME_SYSTEM":"UTC","LAUNCH_DATE":"2023-05-04","SITE":"AFETR","OBJECT_NAME":"STARLINK-6239","RA_OF_ASC_NODE":"116.4755","OBJECT_ID":"2023-061BB","MEAN_ELEMENT_THEORY":"SGP4","EPHEMERIS_TYPE":"0","TLE_LINE2":"2 56423  42.9989 116.4755 0001420 272.8189  22.6798 15.66025956  9554","MEAN_ANOMALY":"22.6798","RCS_SIZE":"LARGE","REV_AT_EPOCH":"955","MEAN_MOTION_DDOT":"0.0000000000000"},{"ECCENTRICITY":"0.00014030","FILE":"3947765","CENTER_NAME":"EARTH","MEAN_MOTION_DOT":"-0.00872361","ARG_OF_PERICENTER":"269.9081","BSTAR":"-0.00905680000000","REF_FRAME":"TEME","SEMIMAJOR_AXIS":"6748.387","MEAN_MOTION":"15.66039705","OBJECT_TYPE":"PAYLOAD","NORAD_CAT_ID":"56424","CLASSIFICATION_TYPE":"U","EPOCH":"2023-07-02T04:00:00.999936","PERIOD":"91.952","OBJECT_ID":"2023-061BC","RA_OF_ASC_NODE":"116.4709","LAUNCH_DATE":"2023-05-04","OBJECT_NAME":"STARLINK-6242","SITE":"AFETR","RCS_SIZE":"LARGE","MEAN_ANOMALY":"27.5548","REV_AT_EPOCH":"955","MEAN_MOTION_DDOT":"0.0000000000000","EPHEMERIS_TYPE":"0","MEAN_ELEMENT_THEORY":"SGP4","TLE_LINE2":"2 56424  42.9988 116.4709 0001403 269.9081  27.5548 15.66039705  9556","PERIAPSIS":"369.305","DECAY_DATE":null,"TLE_LINE1":"1 56424U 23061BC  23183.16667824 -.00872361  00000-0 -90568-2 0  9999","APOAPSIS":"371.199","COUNTRY_CODE":"US","INCLINATION":"42.9988","GP_ID":"234674905","ELEMENT_SET_NO":"999","TIME_SYSTEM":"UTC"},{"CENTER_NAME":"EARTH","ECCENTRICITY":"0.00013770","FILE":"3947344","BSTAR":"-0.00905340000000","MEAN_MOTION_DOT":"-0.00871862","ARG_OF_PERICENTER":"269.3870","OBJECT_TYPE":"PAYLOAD","NORAD_CAT_ID":"56425","REF_FRAME":"TEME","SEMIMAJOR_AXIS":"6748.404","MEAN_MOTION":"15.66033788","PERIOD":"91.952","EPOCH":"2023-07-02T04:00:00.999936","CLASSIFICATION_TYPE":"U","LAUNCH_DATE":"2023-05-04","SITE":"AFETR","OBJECT_NAME":"STARLINK-6224","RA_OF_ASC_NODE":"116.4722","OBJECT_ID":"2023-061BD","MEAN_ELEMENT_THEORY":"SGP4","EPHEMERIS_TYPE":"0","TLE_LINE2":"2 56425  42.9989 116.4722 0001377 269.3870  27.4216 15.66033788  9559","MEAN_ANOMALY":"27.4216","RCS_SIZE":"LARGE","REV_AT_EPOCH":"955","MEAN_MOTION_DDOT":"0.0000000000000","PERIAPSIS":"369.340","DECAY_DATE":null,"COUNTRY_CODE":"US","TLE_LINE1":"1 56425U 23061BD  23183.16667824 -.00871862  00000-0 -90534-2 0  9998","INCLINATION":"42.9989","APOAPSIS":"371.198","ELEMENT_SET_NO":"999","GP_ID":"234664446","TIME_SYSTEM":"UTC"},{"ECCENTRICITY":"0.00014190","FILE":"3947371","CENTER_NAME":"EARTH","ARG_OF_PERICENTER":"269.3718","MEAN_MOTION_DOT":"-0.00872384","BSTAR":"-0.00905270000000","MEAN_MOTION":"15.66051434","SEMIMAJOR_AXIS":"6748.354","REF_FRAME":"TEME","NORAD_CAT_ID":"56426","OBJECT_TYPE":"PAYLOAD","CLASSIFICATION_TYPE":"U","EPOCH":"2023-07-02T04:00:00.999936","PERIOD":"91.951","OBJECT_ID":"2023-061BE","RA_OF_ASC_NODE":"116.4676","OBJECT_NAME":"STARLINK-5352","SITE":"AFETR","LAUNCH_DATE":"2023-05-04","MEAN_MOTION_DDOT":"0.0000000000000","REV_AT_EPOCH":"955","RCS_SIZE":"LARGE","MEAN_ANOMALY":"29.3992","TLE_LINE2":"2 56426  42.9988 116.4676 0001419 269.3718  29.3992 15.66051434  9555","EPHEMERIS_TYPE":"0","MEAN_ELEMENT_THEORY":"SGP4","TLE_LINE1":"1 56426U 23061BE  23183.16667824 -.00872384  00000-0 -90527-2 0  9991","COUNTRY_CODE":"US","APOAPSIS":"371.176","INCLINATION":"42.9988","DECAY_DATE":null,"PERIAPSIS":"369.261","TIME_SYSTEM":"UTC","ELEMENT_SET_NO":"999","GP_ID":"234665478"},{"BSTAR":"-0.00913770000000","ARG_OF_PERICENTER":"270.6156","MEAN_MOTION_DOT":"-0.00879863","CENTER_NAME":"EARTH","FILE":"3947626","ECCENTRICITY":"0.00014530","PERIOD":"91.951","EPOCH":"2023-07-02T04:00:00.999936","CLASSIFICATION_TYPE":"U","OBJECT_TYPE":"PAYLOAD","NORAD_CAT_ID":"56427","SEMIMAJOR_AXIS":"6748.356","MEAN_MOTION":"15.66050603","REF_FRAME":"TEME","TLE_LINE2":"2 56427  42.9990 116.4693 0001453 270.6156  27.4993 15.66050603  9554","MEAN_ELEMENT_THEORY":"SGP4","EPHEMERIS_TYPE":"0","REV_AT_EPOCH":"955","MEAN_MOTION_DDOT":"0.0000000000000","RCS_SIZE":"LARGE","MEAN_ANOMALY":"27.4993","SITE":"AFETR","OBJECT_NAME":"STARLINK-5724","LAUNCH_DATE":"2023-05-04","RA_OF_ASC_NODE":"116.4693","OBJECT_ID":"2023-061BF","TIME_SYSTEM":"UTC","GP_ID":"234671629","ELEMENT_SET_NO":"999","TLE_LINE1":"1 56427U 23061BF  23183.16667824 -.00879863  00000-0 -91377-2 0  9995","APOAPSIS":"371.201","COUNTRY_CODE":"US","INCLINATION":"42.9990","DECAY_DATE":null,"PERIAPSIS":"369.240"},{"ECCENTRICITY":"0.00014030","FILE":"3947855","CENTER_NAME":"EARTH","ARG_OF_PERICENTER":"267.7424","MEAN_MOTION_DOT":"-0.00872603","BSTAR":"-0.00905290000000","MEAN_MOTION":"15.66057772","SEMIMAJOR_AXIS":"6748.335","REF_FRAME":"TEME","NORAD_CAT_ID":"56428","OBJECT_TYPE":"PAYLOAD","CLASSIFICATION_TYPE":"U","EPOCH":"2023-07-02T04:00:00.999936","PERIOD":"91.951","OBJECT_ID":"2023-061BG","RA_OF_ASC_NODE":"116.4663","SITE":"AFETR","OBJECT_NAME":"STARLINK-6238","LAUNCH_DATE":"2023-05-04","MEAN_MOTION_DDOT":"0.0000000000000","REV_AT_EPOCH":"955","MEAN_ANOMALY":"31.6819","RCS_SIZE":"LARGE","TLE_LINE2":"2 56428  42.9988 116.4663 0001403 267.7424  31.6819 15.66057772  9557","EPHEMERIS_TYPE":"0","MEAN_ELEMENT_THEORY":"SGP4","TLE_LINE1":"1 56428U 23061BG  23183.16667824 -.00872603  00000-0 -90529-2 0  9999","APOAPSIS":"371.147","COUNTRY_CODE":"US","INCLINATION":"42.9988","PERIAPSIS":"369.254","DECAY_DATE":null,"TIME_SYSTEM":"UTC","GP_ID":"234677843","ELEMENT_SET_NO":"999"},{"TLE_LINE1":"1 56429U 23061BH  23183.16667824 -.00871832  00000-0 -90421-2 0  9994","COUNTRY_CODE":"US","APOAPSIS":"371.134","INCLINATION":"42.9988","DECAY_DATE":null,"PERIAPSIS":"369.234","TIME_SYSTEM":"UTC","ELEMENT_SET_NO":"999","GP_ID":"234671136","SITE":"AFETR","OBJECT_NAME":"STARLINK-6264","LAUNCH_DATE":"2023-05-04","RA_OF_ASC_NODE":"116.4642","OBJECT_ID":"2023-061BH","TLE_LINE2":"2 56429  42.9988 116.4642 0001408 275.0575  25.0206 15.66063386  9554","MEAN_ELEMENT_THEORY":"SGP4","EPHEMERIS_TYPE":"0","MEAN_MOTION_DDOT":"0.0000000000000","REV_AT_EPOCH":"955","MEAN_ANOMALY":"25.0206","RCS_SIZE":"LARGE","NORAD_CAT_ID":"56429","OBJECT_TYPE":"PAYLOAD","MEAN_MOTION":"15.66063386","SEMIMAJOR_AXIS":"6748.319","REF_FRAME":"TEME","PERIOD":"91.950","EPOCH":"2023-07-02T04:00:00.999936","CLASSIFICATION_TYPE":"U","CENTER_NAME":"EARTH","FILE":"3947626","ECCENTRICITY":"0.00014080","BSTAR":"-0.00904210000000","ARG_OF_PERICENTER":"275.0575","MEAN_MOTION_DOT":"-0.00871832"},{"OBJECT_TYPE":"PAYLOAD","NORAD_CAT_ID":"56448","REF_FRAME":"TEME","SEMIMAJOR_AXIS":"6868.955","MEAN_MOTION":"15.24989117","PERIOD":"94.427","EPOCH":"2023-07-02T04:00:00.999936","CLASSIFICATION_TYPE":"U","CENTER_NAME":"EARTH","FILE":"3947406","ECCENTRICITY":"0.00032380","BSTAR":"-0.03775500000000","MEAN_MOTION_DOT":"-0.00868564","ARG_OF_PERICENTER":"272.3067","PERIAPSIS":"488.596","DECAY_DATE":null,"TLE_LINE1":"1 56448U 23064A   23183.16667824 -.00868564  00000-0 -37755-1 0  9996","COUNTRY_CODE":"US","APOAPSIS":"493.044","INCLINATION":"70.0005","GP_ID":"234665948","ELEMENT_SET_NO":"999","TIME_SYSTEM":"UTC","LAUNCH_DATE":"2023-05-10","SITE":"AFWTR","OBJECT_NAME":"STARLINK-5990","RA_OF_ASC_NODE":"100.0948","OBJECT_ID":"2023-064A","MEAN_ELEMENT_THEORY":"SGP4","EPHEMERIS_TYPE":"0","TLE_LINE2":"2 56448  70.0005 100.0948 0003238 272.3067  12.3912 15.24989117  8559","MEAN_ANOMALY":"12.3912","RCS_SIZE":"LARGE","REV_AT_EPOCH":"855","MEAN_MOTION_DDOT":"0.0000000000000"},{"BSTAR":"-0.03956300000000","MEAN_MOTION_DOT":"-0.00882555","ARG_OF_PERICENTER":"271.6427","CENTER_NAME":"EARTH","ECCENTRICITY":"0.00029890","FILE":"3947439","PERIOD":"94.488","CLASSIFICATION_TYPE":"U","EPOCH":"2023-07-02T04:00:00.999936","NORAD_CAT_ID":"56449","OBJECT_TYPE":"PAYLOAD","REF_FRAME":"TEME","MEAN_MOTION":"15.24010070","SEMIMAJOR_AXIS":"6871.897","MEAN_ELEMENT_THEORY":"SGP4","EPHEMERIS_TYPE":"0","TLE_LINE2":"2 56449  70.0002 100.1535 0002989 271.6427 321.3019 15.24010070  8558","MEAN_ANOMALY":"321.3019","RCS_SIZE":"LARGE","MEAN_MOTION_DDOT":"0.0000000000000","REV_AT_EPOCH":"855","LAUNCH_DATE":"2023-05-10","SITE":"AFWTR","OBJECT_NAME":"STARLINK-5993","OBJECT_ID":"2023-064B","RA_OF_ASC_NODE":"100.1535","ELEMENT_SET_NO":"999","GP_ID":"234667193","TIME_SYSTEM":"UTC","PERIAPSIS":"491.708","DECAY_DATE":null,"TLE_LINE1":"1 56449U 23064B   23183.16667824 -.00882555  00000-0 -39563-1 0  9992","COUNTRY_CODE":"US","APOAPSIS":"495.816","INCLINATION":"70.0002"}];
